[{"OBJECT_NAME":"QIANFAN-103","OBJECT_ID":"2025-233N","EPOCH":"2026-03-07T06:32:02.292000","MEAN_MOTION":13.51006301,"ECCENTRICITY":0.00019333,"INCLINATION":88.994,"RA_OF_ASC_NODE":53.4929,"ARG_OF_PERICENTER":91.5296,"MEAN_ANOMALY":268.6077,"EPHEMERIS_TYPE":0,"CLASSIFICATION_TYPE":"U","NORAD_CAT_ID":66045,"ELEMENT_SET_NO":999,"REV_AT_EPOCH":1942,"BSTAR":6.1052874e-5,"MEAN_MOTION_DOT":5.1e-7,"MEAN_MOTION_DDOT":0},{"OBJECT_NAME":"QIANFAN-104","OBJECT_ID":"2025-233P","EPOCH":"2026-03-07T06:37:38.773344","MEAN_MOTION":13.51010391,"ECCENTRICITY":0.00020961,"INCLINATION":88.9944,"RA_OF_ASC_NODE":53.39,"ARG_OF_PERICENTER":85.4657,"MEAN_ANOMALY":274.6733,"EPHEMERIS_TYPE":0,"CLASSIFICATION_TYPE":"U","NORAD_CAT_ID":66046,"ELEMENT_SET_NO":999,"REV_AT_EPOCH":1947,"BSTAR":6.9734124e-5,"MEAN_MOTION_DOT":5.7e-7,"MEAN_MOTION_DDOT":0},{"OBJECT_NAME":"QIANFAN-105","OBJECT_ID":"2025-233Q","EPOCH":"2026-03-07T06:49:27.543648","MEAN_MOTION":13.50981625,"ECCENTRICITY":0.00020723,"INCLINATION":88.9958,"RA_OF_ASC_NODE":53.2187,"ARG_OF_PERICENTER":92.0932,"MEAN_ANOMALY":268.0456,"EPHEMERIS_TYPE":0,"CLASSIFICATION_TYPE":"U","NORAD_CAT_ID":66047,"ELEMENT_SET_NO":999,"REV_AT_EPOCH":1958,"BSTAR":6.8516067e-5,"MEAN_MOTION_DOT":5.6e-7,"MEAN_MOTION_DDOT":0},{"OBJECT_NAME":"QIANFAN-106","OBJECT_ID":"2025-233R","EPOCH":"2026-03-07T06:43:49.304928","MEAN_MOTION":13.51005301,"ECCENTRICITY":0.00023866,"INCLINATION":88.9926,"RA_OF_ASC_NODE":53.464,"ARG_OF_PERICENTER":85.1975,"MEAN_ANOMALY":274.9448,"EPHEMERIS_TYPE":0,"CLASSIFICATION_TYPE":"U","NORAD_CAT_ID":66048,"ELEMENT_SET_NO":999,"REV_AT_EPOCH":1943,"BSTAR":5.4132224e-5,"MEAN_MOTION_DOT":4.7e-7,"MEAN_MOTION_DDOT":0},{"OBJECT_NAME":"QIANFAN-107","OBJECT_ID":"2025-233S","EPOCH":"2026-03-07T05:09:04.067424","MEAN_MOTION":13.51003327,"ECCENTRICITY":0.00019617,"INCLINATION":88.9942,"RA_OF_ASC_NODE":53.487,"ARG_OF_PERICENTER":90.6611,"MEAN_ANOMALY":269.4765,"EPHEMERIS_TYPE":0,"CLASSIFICATION_TYPE":"U","NORAD_CAT_ID":66049,"ELEMENT_SET_NO":999,"REV_AT_EPOCH":1942,"BSTAR":5.4565036e-5,"MEAN_MOTION_DOT":4.7e-7,"MEAN_MOTION_DDOT":0},{"OBJECT_NAME":"QIANFAN-108","OBJECT_ID":"2025-233T","EPOCH":"2026-03-07T05:14:58.529472","MEAN_MOTION":13.51004824,"ECCENTRICITY":0.0002347,"INCLINATION":88.9935,"RA_OF_ASC_NODE":53.4815,"ARG_OF_PERICENTER":84.7254,"MEAN_ANOMALY":275.4165,"EPHEMERIS_TYPE":0,"CLASSIFICATION_TYPE":"U","NORAD_CAT_ID":66050,"ELEMENT_SET_NO":999,"REV_AT_EPOCH":1942,"BSTAR":5.2001222e-5,"MEAN_MOTION_DOT":4.6e-7,"MEAN_MOTION_DDOT":0}]
