QIANFAN-103             
1 66045U 25233N   26066.27224875  .00000051  00000+0  61053-4 0  9997
2 66045  88.9940  53.4929 0001933  91.5296 268.6077 13.51006301 19423
QIANFAN-104             
1 66046U 25233P   26066.27614321  .00000057  00000+0  69734-4 0  9997
2 66046  88.9944  53.3900 0002096  85.4657 274.6733 13.51010391 19475
QIANFAN-105             
1 66047U 25233Q   26066.28434657  .00000056  00000+0  68516-4 0  9997
2 66047  88.9958  53.2187 0002072  92.0932 268.0456 13.50981625 19588
QIANFAN-106             
1 66048U 25233R   26066.28043177  .00000047  00000+0  54132-4 0  9990
2 66048  88.9926  53.4640 0002386  85.1975 274.9448 13.51005301 19438
QIANFAN-107             
1 66049U 25233S   26066.21463041  .00000047  00000+0  54565-4 0  9990
2 66049  88.9942  53.4870 0001961  90.6611 269.4765 13.51003327 19424
QIANFAN-108             
1 66050U 25233T   26066.21873298  .00000046  00000+0  52001-4 0  9993
2 66050  88.9935  53.4815 0002347  84.7254 275.4165 13.51004824 19427
